[{"OBJECT_NAME":"STARLINK-35596","OBJECT_ID":"2025-236A","EPOCH":"2026-03-09T09:15:44.257824","MEAN_MOTION":15.30199694,"ECCENTRICITY":0.00013216,"INCLINATION":53.1577,"RA_OF_ASC_NODE":105.5998,"ARG_OF_PERICENTER":76.5169,"MEAN_ANOMALY":283.5979,"EPHEMERIS_TYPE":0,"CLASSIFICATION_TYPE":"U","NORAD_CAT_ID":66086,"ELEMENT_SET_NO":999,"REV_AT_EPOCH":2289,"BSTAR":0.00073183761,"MEAN_MOTION_DOT":0.00021378,"MEAN_MOTION_DDOT":0},{"OBJECT_NAME":"FENGYUN 1C DEB","OBJECT_ID":"1999-025CUF","EPOCH":"2026-03-09T01:34:38.628768","MEAN_MOTION":15.17132493,"ECCENTRICITY":0.01273829,"INCLINATION":98.8955,"RA_OF_ASC_NODE":293.2327,"ARG_OF_PERICENTER":89.1897,"MEAN_ANOMALY":272.3925,"EPHEMERIS_TYPE":0,"CLASSIFICATION_TYPE":"U","NORAD_CAT_ID":32185,"ELEMENT_SET_NO":999,"REV_AT_EPOCH":96318,"BSTAR":0.0036969643,"MEAN_MOTION_DOT":0.00091378,"MEAN_MOTION_DDOT":0}]
